[{"street1":"101A Delaware Avenue","zip":"J4B 0B3","prov":"QC","name":"Taylors Roofers","city":"Boucherville"},{"name":"Victone Printers","street1":"11 North St","street2":null,"prov":"ON","city":"Richmond Hill","zip":"L4S 2P5"},{"street1":"2861 Maple Avenue","zip":"L6J 7K1","prov":"ON","name":"Friendly Plumbers","city":"Oakville"},{"street2":"Stn Don Mills","street1":"101A 1st St","zip":"M3C 2X7","prov":"ON","name":"Dylan Fierstein","city":"North York"},{"name":"Reagan Mak"},{"street1":"90 Pleasant St","zip":"L3R 2R7","prov":"ON","name":"Citywide Printers East","city":"Markham"},{"name":"Colton Ridlehoover"},{"name":"Julian Garlock","street1":"36 Canterbury Court","city":"Toronto","prov":"ON","zip":"M2K 1A9"},{"name":"Alexander Shiau","street1":"21 Park Avenue","city":"Scarborough","prov":"ON","zip":"M1T 2R4"},{"street2":"17201 NE Sacramento Street","street1":"101A Pennsylvania Avenue","zip":"97230","prov":"OR","name":"Parkers Roofers","city":"Portland"},{"street1":"85 South St","zip":"N6E 1P9","prov":"ON","name":"Cooper Hsu","city":"London"},{"name":"Christian Ip"},{"name":"Ella Mai","street1":"32 Spring St","city":"Toronto","prov":"ON","zip":"M2K 1A9"},{"name":"Mia Green","street1":"63 Market St","city":"Maple","prov":"ON","zip":"L6A 4S3"},{"street2":"9 Valerie Court","street1":"101A Walnut St","zip":"N3C 3H4","prov":"ON","name":"Nathaniel Fung","city":"Cambridge"},{"zip":"416-838-9678","name":"Jocelyn Loh","city":"DZ Plumbing"},{"street2":"PO Box 650","street1":"101A Queen Ave","zip":"M1K 5E3","prov":"ON","name":"Genesis Every","city":"Scarborough"},{"street1":"101A 4th St West","zip":"L3Z 2B7","prov":"ON","name":"Melanie Geng","city":"Bradford"},{"street2":"132 Front Street East","street1":"101A Ridge Road","zip":"M5A 1E2","prov":"ON","name":"Stella Loo","city":"Toronto"},{"street2":"PO Box 1053","street1":"101A Washington Ave","zip":"R3C 2X4","name":"Oshawa Printers","city":"Winnipeg"},{"street2":"Systems Company Limited","street1":"101A Pearl St","zip":"M1S 4M7","prov":"ON","name":"Kimberly Jin","city":"Scarborough"},{"street1":"70 Madison St","zip":"M1X 1G4","prov":"ON","name":"Melanie Hsiung","city":"Toronto"},{"name":"Adrian Seto","street1":"34 Oak Ave","city":"Toronto","prov":"ON","zip":"M2K 1A9"},{"name":"Liam Joo","street1":"30 King Ave","street2":"","city":"TORONTO","prov":"ON","zip":"M2K 1A9"},{"name":"Jasmine Lien"},{"name":"Zachary Shang","street1":"293 Lake St","street2":null,"prov":"ON","city":"Toronto","zip":"M5M 3K5"},{"street1":"33 Delaware Avenue","zip":"M1L 0A9","prov":"ON","name":"Nathan Tyrone","city":"Scarborough"},{"name":"Joshua Uran","street1":"25 Mulberry St","prov":"ON","zip":"M2K 1A3","street2":"North York"},{"name":"Ian Hirschey","street1":"36 Route 1","city":"Toronto","prov":"ON","zip":"M2K 1A9"},{"name":"Lucas Mei","street1":"25 Poplar St","street2":null,"prov":"ON","city":"North York","zip":"M2K 1A3"},{"name":"Carter New","street1":"4267 Cedar Ave","street2":null,"prov":"ON","city":"Toronto","zip":"M3N 1V7"},{"name":"Michael Tanguma"},{"street2":"10 Bay Street Suite 600","street1":"101A Lake St","zip":"M5J 2R8","prov":"ON","name":"Thistle Roofers East","city":"Toronto"},{"street1":"3337 Spruce St","zip":"M6A 2B7","prov":"ON","name":"Xavier Chia","city":"Toronto"},{"street1":"42 Pennsylvania Avenue","zip":"M9W 4M2","prov":"ON","name":"Fred's Catering","city":"Toronto"},{"street1":"10 Academy St","zip":"L6V 1X4","prov":"ON","name":"Reagan Salk","city":"Brampton"},{"name":"William Lum","street1":"30 Park Avenue","city":"Toronto","prov":"ON","zip":"M2K 1A9"},{"street1":"8 East St","zip":"N2P 2C6","prov":"ON","name":"Toronto Driveway North","city":"Kitchener"},{"street2":"1330 Eglinton Ave. E.","street1":"101A Route 30","zip":"L4W 2L4","prov":"ON","name":"Michael Hom","city":"Mississauga"},{"street1":"24 Chestnut St","zip":"M1E 4B5","prov":"ON","name":"Glenforest Printers Ltd","city":"Toronto"},{"street1":"101A Elizabeth St","zip":"N9A 0A6","prov":"ON","name":"Pickering Roofers East","city":"Windsor"},{"street2":"Box 99 Stn Commerce Crt","street1":"101A Walnut St","zip":"M5L 1L6","prov":"ON","name":"Sheppard Plaza Auto Repair","city":"Toronto"},{"name":"Matthew Sam","street1":"55 Brock Ave","city":"Toronto","prov":"ON","zip":"M2K1Z4"},{"street2":"44 Thorncliffe Park Dr.","street1":"101A Simcoe Ave","zip":"M4H 1K2","prov":"ON","name":"Artist Catering Inc","city":"Toronto"},{"name":"Victone Auto Repair","street1":"57 River St","city":"Toronto","prov":"ON","zip":"M6W 3L6"},{"street2":"Station A","street1":"101A 8th St","zip":"M5W 5M5","prov":"ON","name":"Lily Teaff","city":"Toronto"},{"name":"Skylar Shum","street1":"41 Jefferson Avenue","city":"North York,","prov":"ON","zip":"M4A 1R9"},{"name":"Stork Repairs East"},{"street1":"8 Wellington Ave","zip":"M2K 1X6","prov":"ON","name":"Nolan Sheu","city":"Toronto"},{"name":"Damian Pang","street1":"21 12th St","city":"North York","prov":"ON","zip":"M2J 3K7"},{"street1":"96 Stanley Ave","zip":"M6M 1R3","prov":"ON","name":"Toronto Repairs","city":"Toronto"},{"street2":"PO BOX 4577 STN A","street1":"101A Seventh Ave","zip":"M5W 4V8","prov":"ON","name":"New Park Driveway","city":"TORONTO"},{"street1":"101A Jackson St","zip":"M5W 4H3","prov":"ON","name":"Cooper Ku","city":"Toronto"},{"street1":"101A Myrtle Avenue","zip":"M2N 5V1","prov":"ON","name":"Thistle Roofers South","city":"Toronto"},{"street1":"101A West St","zip":"M2N 5V3","prov":"ON","name":"Fred's Printers","city":"Toronto"},{"street1":"1045 Adams St","zip":"L5E 1H2","prov":"ON","name":"Sheppard Plaza Food","city":"Mississauga Road"},{"street1":"4168 Colonial Drive","zip":"M1S 5H6","prov":"ON","name":"Fred's Pizza","city":"Toronto"},{"street1":"74 Prospect St","zip":"M1T 1G7","prov":"ON","name":"Victone Driveway","city":"Scarborough"},{"name":"Friendly Printers","street1":"2307 Peel Ave","zip":"M1W 2V2","prov":"ON"},{"name":"Beaver Auto Repair"},{"tag":1,"name":"Pickering Roofers","street1":"10815 5th Avenue","city":"Richmond Hill","prov":"ON","zip":"L4C 9Y2"},{"tag":2,"name":"Sophie Brownstein","street1":"10845 Hickory Lane","city":"Port Colborne","prov":"ON","zip":"L3K 5V4"},{"tag":3,"name":"Emma Niu","street1":"15 Park Avenue","street2":"","city":"Toronto","prov":"ON","zip":"M9M 2N9"},{"tag":4,"name":"Eva Lim","street1":"328 Catherine Ave","city":"Scarborough","street2":"Unit 6","prov":"ON","zip":"M1V 5J5"},{"tag":5,"name":"Jordan Liew","prov":"ON","street1":"2885 Jefferson St","street2":"Apt. 324","city":"Toronto","zip":"M2K 0A3"},{"tag":6,"name":"Oshawa Cleaners","street1":"391 Railroad St","street2":"Unit 20","city":"Markham","prov":"ON","zip":"L3R 3V9"}]